{
  "norad_id": 68373,
  "name": "RASSVET-3 14",
  "history": [
    {
      "epoch": "2026-04-02T14:36:13.040064Z",
      "apogee_km": 322.09392608470534,
      "perigee_km": 287.5617102762044,
      "latitude_deg": -3.869996317354798e-05,
      "longitude_deg": 47.490655618023396,
      "height_km": 294.2062832695688,
      "semi_major_axis_km": 6682.964818180455,
      "eccentricity": 0.0025836,
      "inclination_deg": 82.2968,
      "raan_deg": 97.4997,
      "arg_perigee_deg": 37.1973,
      "mean_anomaly_deg": 323.1081,
      "mean_motion_rev_day": 15.89091848
    }
  ]
}