RASSVET-3 14            
1 68373U 26061P   26092.60848426  .00086561  14551-5  29480-3 0  9992
2 68373  82.2968  97.4997 0025836  37.1973 323.1081 15.89091848  1577
